CCSDS_OMM_VERS,COMMENT,CREATION_DATE,ORIGINATOR,OBJECT_NAME,OBJECT_ID,CENTER_NAME,REF_FRAME,TIME_SYSTEM,MEAN_ELEMENT_THEORY,EPOCH,MEAN_MOTION,ECCENTRICITY,INCLINATION,RA_OF_ASC_NODE,ARG_OF_PERICENTER,MEAN_ANOMALY,EPHEMERIS_TYPE,CLASSIFICATION_TYPE,NORAD_CAT_ID,ELEMENT_SET_NO,REV_AT_EPOCH,BSTAR,MEAN_MOTION_DOT,MEAN_MOTION_DDOT,SEMIMAJOR_AXIS,PERIOD,APOAPSIS,PERIAPSIS,OBJECT_TYPE,RCS_SIZE,COUNTRY_CODE,LAUNCH_DATE,SITE,DECAY_DATE,DECAYED,FILE,GP_ID,TLE_LINE0,TLE_LINE1,TLE_LINE2,height_km,latitude,longitude,velocity_kms,id
2.0,GENERATED VIA SPACE-TRACK.ORG API,2022-11-30T17:18:05,18 SPCS,STARLINK-4440,2022-105Z,EARTH,TEME,UTC,SGP4,2022-11-30T14:00:01.999872,15.01229666,0.0002939,97.6534,213.4913,52.9325,210.4999,0,U,53671,999,130,0.004156,0.00053689,0.0,6941.24,95.921,565.145,561.065,PAYLOAD,LARGE,US,2022-08-31,AFWTR,,0,3675646,219177467,0 STARLINK-4440,1 53671U 22105Z   22334.58335648  .00053689  00000-0  41560-2 0  9997,2 53671  97.6534 213.4913 0002939  52.9325 210.4999 15.01229666  1306,566.7071034785031,-8.887608679338719,-118.58816983348686,7.577737759375394,6318d660358d5951a15c0946
2.0,GENERATED VIA SPACE-TRACK.ORG API,2022-11-30T15:16:13,18 SPCS,STARLINK-4456,2022-105AB,EARTH,TEME,UTC,SGP4,2022-11-30T14:00:01.999872,15.00420778,0.0004425,97.6546,214.1279,74.941,121.9419,0,U,53673,999,1424,0.0054341,0.00068904,0.0,6943.735,95.973,568.672,562.527,PAYLOAD,LARGE,US,2022-08-31,AFWTR,,0,3675319,219145895,0 STARLINK-4456,1 53673U 22105AB  22334.58335648  .00068904  00000-0  54341-2 0  9996,2 53673  97.6546 214.1279 0004425  74.9410 121.9419 15.00420778 14241,572.5990969081458,58.962056865165536,-117.01001768848529,7.581865654765347,6318d660358d5951a15c0947
2.0,GENERATED VIA SPACE-TRACK.ORG API,2022-11-30T07:26:14,18 SPCS,STARLINK-4620,2022-105AC,EARTH,TEME,UTC,SGP4,2022-11-30T06:00:00.999648,15.01281076,0.0002537,97.6526,213.1622,76.6813,226.2594,0,U,53674,999,1416,-0.0023995,-0.00030763,0.0,6941.082,95.918,564.708,561.186,PAYLOAD,LARGE,US,2022-08-31,AFWTR,,0,3674289,219125254,0 STARLINK-4620,1 53674U 22105AC  22334.25001157 -.00030763  00000-0 -23995-2 0  9991,2 53674  97.6526 213.1622 0002537  76.6813 226.2594 15.01281076 14160,565.3807548220548,13.107380287604022,76.96107600647049,7.5795309051856865,6318d660358d5951a15c0948
2.0,GENERATED VIA SPACE-TRACK.ORG API,2022-11-30T17:18:05,18 SPCS,STARLINK-4467,2022-105AQ,EARTH,TEME,UTC,SGP4,2022-11-30T14:00:01.999872,15.012314,0.0002178,97.6529,213.4936,121.3404,262.0425,0,U,53686,999,130,0.0045334,0.00058612,0.0,6941.235,95.921,564.612,561.588,PAYLOAD,LARGE,US,2022-08-31,AFWTR,,0,3675646,219178318,0 STARLINK-4467,1 53686U 22105AQ  22334.58335648  .00058612  00000-0  45334-2 0  9997,2 53686  97.6529 213.4936 0002178 121.3404 262.0425 15.01231400  1301,573.2286947259036,67.34339883896094,78.86861892571343,7.581331734458416,6318d660358d5951a15c0949
2.0,GENERATED VIA SPACE-TRACK.ORG API,2022-11-30T17:18:05,18 SPCS,STARLINK-4406,2022-105V,EARTH,TEME,UTC,SGP4,2022-11-30T14:00:01.999872,15.01228555,0.0002683,97.6564,213.5101,67.6672,145.7348,0,U,53667,999,130,0.0053291,0.00069008,0.0,6941.244,95.921,564.971,561.246,PAYLOAD,LARGE,US,2022-08-31,AFWTR,,0,3675646,219177111,0 STARLINK-4406,1 53667U 22105V   22334.58335648  .00069008  00000-0  53291-2 0  9998,2 53667  97.6564 213.5101 0002683  67.6672 145.7348 15.01228555  1302,586.5582346158153,-57.92119619553443,-107.47021827761101,7.565040554638646,6318d660358d5951a15c09cf
2.0,GENERATED VIA SPACE-TRACK.ORG API,2022-11-30T17:18:05,18 SPCS,STARLINK-4466,2022-105J,EARTH,TEME,UTC,SGP4,2022-11-30T14:00:01.999872,15.01257786,0.0002071,97.6562,213.5058,54.6878,117.3986,0,U,53656,999,130,0.0020521,0.00026396,0.0,6941.154,95.92,564.456,561.581,PAYLOAD,LARGE,US,2022-08-31,AFWTR,,0,3675646,219177280,0 STARLINK-4466,1 53656U 22105J   22334.58335648  .00026396  00000-0  20521-2 0  9999,2 53656  97.6562 213.5058 0002071  54.6878 117.3986 15.01257786  1305,592.0191965002068,-77.69990457819365,22.387004762301903,7.562125537644193,6318d660358d5951a15c0aa2
2.0,GENERATED VIA SPACE-TRACK.ORG API,2022-11-30T17:18:05,18 SPCS,STARLINK-4626,2022-105AP,EARTH,TEME,UTC,SGP4,2022-11-30T14:00:01.999872,15.01223023,0.0001854,97.6535,213.4939,116.4116,246.9955,0,U,53685,999,130,0.0045191,0.00058412,0.0,6941.261,95.922,564.413,561.839,PAYLOAD,LARGE,US,2022-08-31,AFWTR,,0,3675646,219177811,0 STARLINK-4626,1 53685U 22105AP  22334.58335648  .00058412  00000-0  45191-2 0  9995,2 53685  97.6535 213.4939 0001854 116.4116 246.9955 15.01223023  1306,575.4531466781409,82.29699964937404,141.35945355258363,7.580610393762127,6318d660358d5951a15c0ad0
2.0,GENERATED VIA SPACE-TRACK.ORG API,2022-11-30T17:18:05,18 SPCS,STARLINK-4457,2022-105R,EARTH,TEME,UTC,SGP4,2022-11-30T14:00:01.999872,15.01245072,0.0002065,97.6572,213.5107,75.8027,117.6194,0,U,53663,999,130,0.0025659,0.0003304,0.0,6941.193,95.92,564.491,561.625,PAYLOAD,LARGE,US,2022-08-31,AFWTR,,0,3675646,219177466,0 STARLINK-4457,1 53663U 22105R   22334.58335648  .00033040  00000-0  25659-2 0  9998,2 53663  97.6572 213.5107 0002065  75.8027 117.6194 15.01245072  1302,591.856320254722,-76.54555535293969,-85.7851525424251,7.562207557892087,6318d660358d5951a15c0afd
2.0,GENERATED VIA SPACE-TRACK.ORG API,2022-11-30T17:18:05,18 SPCS,STARLINK-4632,2022-105AH,EARTH,TEME,UTC,SGP4,2022-11-30T14:00:01.999872,15.01253168,0.0002065,97.6531,213.4926,90.1149,223.31,0,U,53679,999,130,0.002846,0.0003668,0.0,6941.168,95.92,564.466,561.6,PAYLOAD,LARGE,US,2022-08-31,AFWTR,,0,3675646,219177468,0 STARLINK-4632,1 53679U 22105AH  22334.58335648  .00036680  00000-0  28460-2 0  9991,2 53679  97.6531 213.4926 0002065  90.1149 223.3100 15.01253168  1304,568.0687990461665,41.1883035919063,-126.52161673232413,7.581522338868839,6318d660358d5951a15c0b15
2.0,GENERATED VIA SPACE-TRACK.ORG API,2022-11-30T17:18:05,18 SPCS,STARLINK-4579,2022-105AF,EARTH,TEME,UTC,SGP4,2022-11-30T14:00:01.999872,15.0123375,0.0002695,97.6529,213.4923,65.373,228.0229,0,U,53677,999,130,0.0048878,0.00063245,0.0,6941.228,95.921,564.963,561.222,PAYLOAD,LARGE,US,2022-08-31,AFWTR,,0,3675646,219177810,0 STARLINK-4579,1 53677U 22105AF  22334.58335648  .00063245  00000-0  48878-2 0  9991,2 53677  97.6529 213.4923 0002695  65.3730 228.0229 15.01233750  1304,564.3989513309089,20.93291446664561,-122.71060493310401,7.581590782696823,6318d660358d5951a15c0b3d
2.0,GENERATED VIA SPACE-TRACK.ORG API,2022-11-30T17:18:05,18 SPCS,STARLINK-4374,2022-105E,EARTH,TEME,UTC,SGP4,2022-11-30T14:00:01.999872,15.0123288,0.0002114,97.6563,213.492,65.005,58.4007,0,U,53652,999,130,0.0052418,0.00067872,0.0,6941.23,95.921,564.563,561.628,PAYLOAD,LARGE,US,2022-08-31,AFWTR,,0,3675646,219177636,0 STARLINK-4374,1 53652U 22105E   22334.58335648  .00067872  00000-0  52418-2 0  9999,2 53652  97.6563 213.4920 0002114  65.0050  58.4007 15.01232880  1302,576.0336692675128,-31.200158492852545,55.56968190203461,7.570700509907975,6318d660358d5951a15c0b4e
2.0,GENERATED VIA SPACE-TRACK.ORG API,2022-11-30T17:18:05,18 SPCS,STARLINK-4630,2022-105AJ,EARTH,TEME,UTC,SGP4,2022-11-30T14:00:01.999872,15.01229228,0.0002249,97.6531,213.494,114.3799,239.0115,0,U,53680,999,130,0.00456,0.00058956,0.0,6941.242,95.921,564.668,561.546,PAYLOAD,LARGE,US,2022-08-31,AFWTR,,0,3675646,219177283,0 STARLINK-4630,1 53680U 22105AJ  22334.58335648  .00058956  00000-0  45600-2 0  9998,2 53680  97.6531 213.4940 0002249 114.3799 239.0115 15.01229228  1306,574.9610775980263,78.37650652922278,-160.29857637163505,7.5808433241426085,6318d660358d5951a15c0b59
2.0,GENERATED VIA SPACE-TRACK.ORG API,2022-11-30T15:16:13,18 SPCS,STARLINK-4464,2022-105X,EARTH,TEME,UTC,SGP4,2022-11-30T14:00:01.999872,15.01233929,0.0003273,97.6539,213.4945,55.8827,187.5123,0,U,53669,999,1420,0.005213,0.000675,0.0,6941.227,95.921,565.364,560.82,PAYLOAD,LARGE,US,2022-08-31,AFWTR,,0,3675319,219145885,0 STARLINK-4464,1 53669U 22105X   22334.58335648  .00067500  00000-0  52130-2 0  9996,2 53669  97.6539 213.4945 0003273  55.8827 187.5123 15.01233929 14207,588.7174382199737,-60.717298419384406,76.40762857949616,7.5632517377579855,6318d661358d5951a15c0bb8
2.0,GENERATED VIA SPACE-TRACK.ORG API,2022-11-30T17:18:05,18 SPCS,STARLINK-4625,2022-105AM,EARTH,TEME,UTC,SGP4,2022-11-30T14:00:01.999872,15.01257796,0.0002074,97.6542,213.4939,113.4123,229.9695,0,U,53683,999,130,0.0018643,0.00023967,0.0,6941.154,95.92,564.458,561.579,PAYLOAD,LARGE,US,2022-08-31,AFWTR,,0,3675646,219177113,0 STARLINK-4625,1 53683U 22105AM  22334.58335648  .00023967  00000-0  18643-2 0  9992,2 53683  97.6542 213.4939 0002074 113.4123 229.9695 15.01257796  1308,574.0577351327265,70.12818681500397,-141.5082432311002,7.580825525473552,6318d661358d5951a15c0c21
2.0,GENERATED VIA SPACE-TRACK.ORG API,2022-11-30T17:18:05,18 SPCS,STARLINK-4470,2022-105H,EARTH,TEME,UTC,SGP4,2022-11-30T14:00:01.999872,15.01223544,0.0001963,97.6578,213.4949,57.0915,76.2978,0,U,53655,999,130,0.0053147,0.00068809,0.0,6941.259,95.922,564.487,561.762,PAYLOAD,LARGE,US,2022-08-31,AFWTR,,0,3675646,219177465,0 STARLINK-4470,1 53655U 22105H   22334.58335648  .00068809  00000-0  53147-2 0  9993,2 53655  97.6578 213.4949 0001963  57.0915  76.2978 15.01223544  1306,580.1215237684937,-40.991063448317355,53.5470664028328,7.56834795449205,6318d661358d5951a15c0c23
2.0,GENERATED VIA SPACE-TRACK.ORG API,2022-11-30T15:06:14,18 SPCS,STARLINK-4418,2022-105AG,EARTH,TEME,UTC,SGP4,2022-11-30T14:00:01.999872,15.01233061,0.0001838,97.6533,213.4941,90.576,242.8156,0,U,53678,999,1421,0.004562,0.00058987,0.0,6941.23,95.921,564.371,561.819,PAYLOAD,LARGE,US,2022-08-31,AFWTR,,0,3675242,219143867,0 STARLINK-4418,1 53678U 22105AG  22334.58335648  .00058987  00000-0  45620-2 0  9991,2 53678  97.6533 213.4941 0001838  90.5760 242.8156 15.01233061 14213,569.9863690118736,-16.357361116656147,72.96126786055238,7.5748726136705455,6318d661358d5951a15c0c97
